[{"OBJECT_NAME":"STARLINK-30971","OBJECT_ID":"2023-183G","EPOCH":"2026-03-09T22:00:01.999584","MEAN_MOTION":15.26725568,"ECCENTRICITY":0.00013439,"INCLINATION":43.0006,"RA_OF_ASC_NODE":40.3559,"ARG_OF_PERICENTER":265.7456,"MEAN_ANOMALY":277.1828,"EPHEMERIS_TYPE":0,"CLASSIFICATION_TYPE":"U","NORAD_CAT_ID":58443,"ELEMENT_SET_NO":999,"REV_AT_EPOCH":578,"BSTAR":0.0011226835,"MEAN_MOTION_DOT":0.00029964,"MEAN_MOTION_DDOT":0},{"OBJECT_NAME":"USA 62","OBJECT_ID":"1990-050D","EPOCH":"2026-03-09T11:26:27.362112","MEAN_MOTION":13.63463645,"ECCENTRICITY":0.08775957,"INCLINATION":63.2946,"RA_OF_ASC_NODE":119.2359,"ARG_OF_PERICENTER":82.7401,"MEAN_ANOMALY":287.2429,"EPHEMERIS_TYPE":0,"CLASSIFICATION_TYPE":"U","NORAD_CAT_ID":20692,"ELEMENT_SET_NO":999,"REV_AT_EPOCH":9111,"BSTAR":0.00035081004,"MEAN_MOTION_DOT":4.907e-5,"MEAN_MOTION_DDOT":0}]
